CCSDS_OMM_VERS = 2.0
CREATION_DATE  = 
ORIGINATOR     = 

OBJECT_NAME    = STARLINK-36428
OBJECT_ID      = 2026-003AE
CENTER_NAME    = EARTH
REF_FRAME      = TEME
TIME_SYSTEM    = UTC
MEAN_ELEMENT_THEORY = SGP/SGP4

EPOCH          = 2026-01-19T14:00:01.999872
MEAN_MOTION    = 15.87499980
ECCENTRICITY   = .00012438
INCLINATION    = 42.9984
RA_OF_ASC_NODE = 150.9790
ARG_OF_PERICENTER = 277.5188
MEAN_ANOMALY   = 256.8620

EPHEMERIS_TYPE = 0
CLASSIFICATION_TYPE = U
NORAD_CAT_ID   = 67362
ELEMENT_SET_NO = 999
REV_AT_EPOCH   = 278
BSTAR          = -.71381901E-2
MEAN_MOTION_DOT = -.170139E-1
MEAN_MOTION_DDOT = 0

CCSDS_OMM_VERS = 2.0
CREATION_DATE  = 
ORIGINATOR     = 

OBJECT_NAME    = SHIJIAN-29B (SJ-29B)
OBJECT_ID      = 2025-315C
CENTER_NAME    = EARTH
REF_FRAME      = TEME
TIME_SYSTEM    = UTC
MEAN_ELEMENT_THEORY = SGP/SGP4

EPOCH          = 2026-01-19T16:00:12.267360
MEAN_MOTION    = 1.00271629
ECCENTRICITY   = .0000924
INCLINATION    = 3.0208
RA_OF_ASC_NODE = 99.0401
ARG_OF_PERICENTER = 321.9053
MEAN_ANOMALY   = 11.2548

EPHEMERIS_TYPE = 0
CLASSIFICATION_TYPE = U
NORAD_CAT_ID   = 67403
ELEMENT_SET_NO = 999
REV_AT_EPOCH   = 19
BSTAR          = 0
MEAN_MOTION_DOT = -.54E-6
MEAN_MOTION_DDOT = 0

CCSDS_OMM_VERS = 2.0
CREATION_DATE  = 
ORIGINATOR     = 

OBJECT_NAME    = YAOGAN-50 01
OBJECT_ID      = 2026-006A
CENTER_NAME    = EARTH
REF_FRAME      = TEME
TIME_SYSTEM    = UTC
MEAN_ELEMENT_THEORY = SGP/SGP4

EPOCH          = 2026-01-16T04:17:29.045760
MEAN_MOTION    = 14.21837795
ECCENTRICITY   = .01649624
INCLINATION    = 141.9984
RA_OF_ASC_NODE = 200.7842
ARG_OF_PERICENTER = 123.7171
MEAN_ANOMALY   = 237.9391

EPHEMERIS_TYPE = 0
CLASSIFICATION_TYPE = U
NORAD_CAT_ID   = 67433
ELEMENT_SET_NO = 999
REV_AT_EPOCH   = 37
BSTAR          = .12657815E-3
MEAN_MOTION_DOT = .537E-5
MEAN_MOTION_DDOT = 0

CCSDS_OMM_VERS = 2.0
CREATION_DATE  = 
ORIGINATOR     = 

OBJECT_NAME    = CZ-6A R/B
OBJECT_ID      = 2026-006B
CENTER_NAME    = EARTH
REF_FRAME      = TEME
TIME_SYSTEM    = UTC
MEAN_ELEMENT_THEORY = SGP/SGP4

EPOCH          = 2026-01-13T17:12:57.362112
MEAN_MOTION    = 14.62247694
ECCENTRICITY   = .02017257
INCLINATION    = 142.0438
RA_OF_ASC_NODE = 188.1412
ARG_OF_PERICENTER = 82.0696
MEAN_ANOMALY   = 280.2897

EPHEMERIS_TYPE = 0
CLASSIFICATION_TYPE = U
NORAD_CAT_ID   = 67434
ELEMENT_SET_NO = 999
REV_AT_EPOCH   = 2
BSTAR          = .30805067E-4
MEAN_MOTION_DOT = .541E-5
MEAN_MOTION_DDOT = 0

CCSDS_OMM_VERS = 2.0
CREATION_DATE  = 
ORIGINATOR     = 

OBJECT_NAME    = HULIANWANG DIGUI 18A
OBJECT_ID      = 2026-007A
CENTER_NAME    = EARTH
REF_FRAME      = TEME
TIME_SYSTEM    = UTC
MEAN_ELEMENT_THEORY = SGP/SGP4

EPOCH          = 2026-01-19T15:30:15.397920
MEAN_MOTION    = 13.92121540
ECCENTRICITY   = .00083774
INCLINATION    = 50.0083
RA_OF_ASC_NODE = 270.5026
ARG_OF_PERICENTER = 290.2200
MEAN_ANOMALY   = 69.7798

EPHEMERIS_TYPE = 0
CLASSIFICATION_TYPE = U
NORAD_CAT_ID   = 67435
ELEMENT_SET_NO = 999
REV_AT_EPOCH   = 84
BSTAR          = .15447082E-3
MEAN_MOTION_DOT = .52E-6
MEAN_MOTION_DDOT = 0

CCSDS_OMM_VERS = 2.0
CREATION_DATE  = 
ORIGINATOR     = 

OBJECT_NAME    = HULIANWANG DIGUI 18B
OBJECT_ID      = 2026-007B
CENTER_NAME    = EARTH
REF_FRAME      = TEME
TIME_SYSTEM    = UTC
MEAN_ELEMENT_THEORY = SGP/SGP4

EPOCH          = 2026-01-19T15:30:56.151936
MEAN_MOTION    = 13.92014283
ECCENTRICITY   = .00074911
INCLINATION    = 50.0063
RA_OF_ASC_NODE = 270.5022
ARG_OF_PERICENTER = 278.1950
MEAN_ANOMALY   = 81.8100

EPHEMERIS_TYPE = 0
CLASSIFICATION_TYPE = U
NORAD_CAT_ID   = 67436
ELEMENT_SET_NO = 999
REV_AT_EPOCH   = 84
BSTAR          = .14435404E-3
MEAN_MOTION_DOT = .39E-6
MEAN_MOTION_DDOT = 0

CCSDS_OMM_VERS = 2.0
CREATION_DATE  = 
ORIGINATOR     = 

OBJECT_NAME    = HULIANWANG DIGUI 18C
OBJECT_ID      = 2026-007C
CENTER_NAME    = EARTH
REF_FRAME      = TEME
TIME_SYSTEM    = UTC
MEAN_ELEMENT_THEORY = SGP/SGP4

EPOCH          = 2026-01-19T15:30:39.983904
MEAN_MOTION    = 13.92054664
ECCENTRICITY   = .00081533
INCLINATION    = 50.0032
RA_OF_ASC_NODE = 270.4978
ARG_OF_PERICENTER = 285.4370
MEAN_ANOMALY   = 74.5628

EPHEMERIS_TYPE = 0
CLASSIFICATION_TYPE = U
NORAD_CAT_ID   = 67437
ELEMENT_SET_NO = 999
REV_AT_EPOCH   = 84
BSTAR          = .19323115E-3
MEAN_MOTION_DOT = .102E-5
MEAN_MOTION_DDOT = 0

CCSDS_OMM_VERS = 2.0
CREATION_DATE  = 
ORIGINATOR     = 

OBJECT_NAME    = HULIANWANG DIGUI 18D
OBJECT_ID      = 2026-007D
CENTER_NAME    = EARTH
REF_FRAME      = TEME
TIME_SYSTEM    = UTC
MEAN_ELEMENT_THEORY = SGP/SGP4

EPOCH          = 2026-01-19T15:31:37.820928
MEAN_MOTION    = 13.91902036
ECCENTRICITY   = .00089571
INCLINATION    = 50.0058
RA_OF_ASC_NODE = 270.5043
ARG_OF_PERICENTER = 284.1629
MEAN_ANOMALY   = 75.8275

EPHEMERIS_TYPE = 0
CLASSIFICATION_TYPE = U
NORAD_CAT_ID   = 67438
ELEMENT_SET_NO = 999
REV_AT_EPOCH   = 84
BSTAR          = .17365257E-3
MEAN_MOTION_DOT = .76E-6
MEAN_MOTION_DDOT = 0

CCSDS_OMM_VERS = 2.0
CREATION_DATE  = 
ORIGINATOR     = 

OBJECT_NAME    = HULIANWANG DIGUI 18E
OBJECT_ID      = 2026-007E
CENTER_NAME    = EARTH
REF_FRAME      = TEME
TIME_SYSTEM    = UTC
MEAN_ELEMENT_THEORY = SGP/SGP4

EPOCH          = 2026-01-19T15:29:57.478560
MEAN_MOTION    = 13.92170560
ECCENTRICITY   = .00067504
INCLINATION    = 50.0050
RA_OF_ASC_NODE = 270.4971
ARG_OF_PERICENTER = 283.0596
MEAN_ANOMALY   = 76.9550

EPHEMERIS_TYPE = 0
CLASSIFICATION_TYPE = U
NORAD_CAT_ID   = 67439
ELEMENT_SET_NO = 999
REV_AT_EPOCH   = 84
BSTAR          = .15733701E-3
MEAN_MOTION_DOT = .56E-6
MEAN_MOTION_DDOT = 0

CCSDS_OMM_VERS = 2.0
CREATION_DATE  = 
ORIGINATOR     = 

OBJECT_NAME    = HULIANWANG DIGUI 18F
OBJECT_ID      = 2026-007F
CENTER_NAME    = EARTH
REF_FRAME      = TEME
TIME_SYSTEM    = UTC
MEAN_ELEMENT_THEORY = SGP/SGP4

EPOCH          = 2026-01-19T15:29:09.460896
MEAN_MOTION    = 13.92299460
ECCENTRICITY   = .00075937
INCLINATION    = 50.0128
RA_OF_ASC_NODE = 270.5048
ARG_OF_PERICENTER = 291.9877
MEAN_ANOMALY   = 68.0215

EPHEMERIS_TYPE = 0
CLASSIFICATION_TYPE = U
NORAD_CAT_ID   = 67440
ELEMENT_SET_NO = 999
REV_AT_EPOCH   = 84
BSTAR          = .32702661E-4
MEAN_MOTION_DOT = -.105E-5
MEAN_MOTION_DDOT = 0

CCSDS_OMM_VERS = 2.0
CREATION_DATE  = 
ORIGINATOR     = 

OBJECT_NAME    = HULIANWANG DIGUI 18G
OBJECT_ID      = 2026-007G
CENTER_NAME    = EARTH
REF_FRAME      = TEME
TIME_SYSTEM    = UTC
MEAN_ELEMENT_THEORY = SGP/SGP4

EPOCH          = 2026-01-19T15:28:58.768896
MEAN_MOTION    = 13.92328897
ECCENTRICITY   = .0006327
INCLINATION    = 50.0106
RA_OF_ASC_NODE = 270.5011
ARG_OF_PERICENTER = 288.4837
MEAN_ANOMALY   = 71.5374

EPHEMERIS_TYPE = 0
CLASSIFICATION_TYPE = U
NORAD_CAT_ID   = 67441
ELEMENT_SET_NO = 999
REV_AT_EPOCH   = 84
BSTAR          = .16194686E-3
MEAN_MOTION_DOT = .62E-6
MEAN_MOTION_DDOT = 0

CCSDS_OMM_VERS = 2.0
CREATION_DATE  = 
ORIGINATOR     = 

OBJECT_NAME    = HULIANWANG DIGUI 18H
OBJECT_ID      = 2026-007H
CENTER_NAME    = EARTH
REF_FRAME      = TEME
TIME_SYSTEM    = UTC
MEAN_ELEMENT_THEORY = SGP/SGP4

EPOCH          = 2026-01-19T15:28:37.115328
MEAN_MOTION    = 13.92385558
ECCENTRICITY   = .00074827
INCLINATION    = 50.0094
RA_OF_ASC_NODE = 270.4989
ARG_OF_PERICENTER = 298.8617
MEAN_ANOMALY   = 61.1531

EPHEMERIS_TYPE = 0
CLASSIFICATION_TYPE = U
NORAD_CAT_ID   = 67442
ELEMENT_SET_NO = 999
REV_AT_EPOCH   = 84
BSTAR          = .14300706E-3
MEAN_MOTION_DOT = .38E-6
MEAN_MOTION_DDOT = 0

