STARLINK-36428          
1 67362U 26003AE  26019.58335648 -.01701390  00000+0 -71382-2 0  9990
2 67362  42.9984 150.9790 0001243 277.5188 256.8620 15.87499980  2787
SHIJIAN-29B (SJ-29B)    
1 67403U 25315C   26019.66680865 -.00000054  00000+0  00000+0 0  9997
2 67403   3.0208  99.0401 0000924 321.9053  11.2548  1.00271629   195
YAOGAN-50 01            
1 67433U 26006A   26016.17880840  .00000537  00000+0  12658-3 0  9997
2 67433 141.9984 200.7842 0164962 123.7171 237.9391 14.21837795   375
CZ-6A R/B               
1 67434U 26006B   26013.71733058  .00000541  00000+0  30805-4 0  9993
2 67434 142.0438 188.1412 0201725  82.0696 280.2897 14.62247694    24
HULIANWANG DIGUI 18A    
1 67435U 26007A   26019.64601155  .00000052  00000+0  15447-3 0  9996
2 67435  50.0083 270.5026 0008377 290.2200  69.7798 13.92121540   841
HULIANWANG DIGUI 18B    
1 67436U 26007B   26019.64648324  .00000039  00000+0  14435-3 0  9997
2 67436  50.0063 270.5022 0007491 278.1950  81.8100 13.92014283   846
HULIANWANG DIGUI 18C    
1 67437U 26007C   26019.64629611  .00000102  00000+0  19323-3 0  9998
2 67437  50.0032 270.4978 0008153 285.4370  74.5628 13.92054664   846
HULIANWANG DIGUI 18D    
1 67438U 26007D   26019.64696552  .00000076  00000+0  17365-3 0  9991
2 67438  50.0058 270.5043 0008957 284.1629  75.8275 13.91902036   840
HULIANWANG DIGUI 18E    
1 67439U 26007E   26019.64580415  .00000056  00000+0  15734-3 0  9998
2 67439  50.0050 270.4971 0006750 283.0596  76.9550 13.92170560   840
HULIANWANG DIGUI 18F    
1 67440U 26007F   26019.64524839 -.00000105  00000+0  32703-4 0  9990
2 67440  50.0128 270.5048 0007593 291.9877  68.0215 13.92299460   841
HULIANWANG DIGUI 18G    
1 67441U 26007G   26019.64512464  .00000062  00000+0  16195-3 0  9999
2 67441  50.0106 270.5011 0006327 288.4837  71.5374 13.92328897   841
HULIANWANG DIGUI 18H    
1 67442U 26007H   26019.64487402  .00000038  00000+0  14301-3 0  9993
2 67442  50.0094 270.4989 0007482 298.8617  61.1531 13.92385558   842
